[{"OBJECT_NAME":"CUBESX-HSE 3 (RS42S)","OBJECT_ID":"2023-091N","EPOCH":"2026-03-09T22:57:25.321248","MEAN_MOTION":15.286147,"ECCENTRICITY":0.00127191,"INCLINATION":97.5203,"RA_OF_ASC_NODE":133.4295,"ARG_OF_PERICENTER":86.5376,"MEAN_ANOMALY":273.7318,"EPHEMERIS_TYPE":0,"CLASSIFICATION_TYPE":"U","NORAD_CAT_ID":57178,"ELEMENT_SET_NO":999,"REV_AT_EPOCH":14925,"BSTAR":0.00059055694,"MEAN_MOTION_DOT":0.00016417,"MEAN_MOTION_DDOT":0},{"OBJECT_NAME":"STARLINK-34219","OBJECT_ID":"2025-120Q","EPOCH":"2026-03-09T10:30:50.749632","MEAN_MOTION":15.30213417,"ECCENTRICITY":9.361e-5,"INCLINATION":53.1584,"RA_OF_ASC_NODE":118.1393,"ARG_OF_PERICENTER":64.6104,"MEAN_ANOMALY":295.4994,"EPHEMERIS_TYPE":0,"CLASSIFICATION_TYPE":"U","NORAD_CAT_ID":64270,"ELEMENT_SET_NO":999,"REV_AT_EPOCH":4387,"BSTAR":0.00086011445,"MEAN_MOTION_DOT":0.00025212,"MEAN_MOTION_DDOT":0}]
